[Satellite]
VERSION=1.1
NAME=GLOBALSTAR M032
NICKNAME=GLOBALSTAR M032
TLE1=1 25852U 99037B   17186.10827859 -.00000065  00000-0  57120-4 0  9994
TLE2=2 25852  51.9965  76.6835 0000723  71.1938 288.8940 11.19021856809735
